[{"OBJECT_NAME":"GMS-T","OBJECT_ID":"2021-004A","EPOCH":"2026-03-09T21:58:54.862464","MEAN_MOTION":13.16656588,"ECCENTRICITY":0.00016531,"INCLINATION":90.1169,"RA_OF_ASC_NODE":240.6396,"ARG_OF_PERICENTER":357.5234,"MEAN_ANOMALY":2.5889,"EPHEMERIS_TYPE":0,"CLASSIFICATION_TYPE":"U","NORAD_CAT_ID":47346,"ELEMENT_SET_NO":999,"REV_AT_EPOCH":24653,"BSTAR":0.00013651536,"MEAN_MOTION_DOT":6.0e-7,"MEAN_MOTION_DDOT":0},{"OBJECT_NAME":"NOVA 3","OBJECT_ID":"1984-110A","EPOCH":"2026-03-09T22:56:57.313824","MEAN_MOTION":13.23056942,"ECCENTRICITY":0.00334622,"INCLINATION":90.1127,"RA_OF_ASC_NODE":81.5188,"ARG_OF_PERICENTER":89.1357,"MEAN_ANOMALY":332.5718,"EPHEMERIS_TYPE":0,"CLASSIFICATION_TYPE":"U","NORAD_CAT_ID":15362,"ELEMENT_SET_NO":999,"REV_AT_EPOCH":99852,"BSTAR":0.00012783435,"MEAN_MOTION_DOT":6.3e-7,"MEAN_MOTION_DDOT":0}]
